NORAD_CAT_ID,OBJECT_NAME,OBJECT_TYPE,EPOCH,MEAN_MOTION,ECCENTRICITY,INCLINATION,RA_OF_ASC_NODE,ARG_OF_PERICENTER,MEAN_ANOMALY,BSTAR,MEAN_MOTION_DOT,MEAN_MOTION_DDOT,TLE_LINE0,TLE_LINE1,TLE_LINE2,SEMIMAJOR_AXIS,PERIOD,APOGEE,PERIGEE,DECAYED
51990.0,STARLINK-3657,PAYLOAD,2023-10-23 08:07:37,15.08837915,0.0001738,53.218,317.2997,96.924,263.195,2.3477e-05,8.6e-07,0.0,0 STARLINK-3657,1 51990U 22025AL  23296.33863363  .00000086  00000-0  23477-4 0  9993,2 51990  53.2180 317.2997 0001738  96.9240 263.1950 15.08837915 90240,6917.887,95.438,540.954,538.549,0.0
51990.0,STARLINK-3657,PAYLOAD,2023-10-24 04:47:38,15.08840381,0.0001699,53.2176,313.4345,98.3223,261.7962,9.8469e-05,1.279e-05,0.0,0 STARLINK-3657,1 51990U 22025AL  23297.19975413  .00001279  00000-0  98469-4 0  9996,2 51990  53.2176 313.4345 0001699  98.3223 261.7962 15.08840381 91477,6917.879,95.438,540.92,538.569,0.0
51990.0,STARLINK-3657,PAYLOAD,2023-10-24 11:09:11,15.08846222,0.0001632,53.2175,312.2462,91.8103,268.3076,0.00011166,1.49e-05,0.0,0 STARLINK-3657,1 51990U 22025AL  23297.46471146  .00001490  00000-0  11166-3 0  9993,2 51990  53.2175 312.2462 0001632  91.8103 268.3076 15.08846222 90417,6917.861,95.437,540.855,538.597,0.0
51990.0,STARLINK-3657,PAYLOAD,2023-10-25 10:59:57,15.0884992,0.0001581,53.2164,307.7843,90.3437,269.7737,0.00024936,3.684e-05,0.0,0 STARLINK-3657,1 51990U 22025AL  23298.45830913  .00003684  00000-0  24936-3 0  9990,2 51990  53.2164 307.7843 0001581  90.3437 269.7737 15.08849920 91669,6917.85,95.437,540.809,538.621,0.0
51990.0,STARLINK-3657,PAYLOAD,2023-10-26 04:29:12,15.08838011,0.0001689,53.2177,304.5128,94.2497,265.8688,-2.5785e-05,-6.98e-06,0.0,0 STARLINK-3657,1 51990U 22025AL  23299.18695448 -.00000698  00000-0 -25785-4 0  9991,2 51990  53.2177 304.5128 0001689  94.2497 265.8688 15.08838011 91775,6917.886,95.438,540.92,538.583,0.0
51990.0,STARLINK-3657,PAYLOAD,2023-10-26 09:15:22,15.08839423,0.0001602,53.218,303.6232,88.1302,271.9873,8.3938e-06,-1.54e-06,0.0,0 STARLINK-3657,1 51990U 22025AL  23299.38567420 -.00000154  00000-0  83938-5 0  9992,2 51990  53.2180 303.6232 0001602  88.1302 271.9873 15.08839423 90701,6917.882,95.438,540.855,538.639,0.0
51990.0,STARLINK-3657,PAYLOAD,2023-10-27 04:19:59,15.08849705,0.000157,53.2178,300.0554,93.4674,266.6497,0.00012219,1.658e-05,0.0,0 STARLINK-3657,1 51990U 22025AL  23300.18054796  .00001658  00000-0  12219-3 0  9991,2 51990  53.2178 300.0554 0001570  93.4674 266.6497 15.08849705 91923,6917.851,95.437,540.802,538.63,0.0
51990.0,STARLINK-3657,PAYLOAD,2023-10-27 09:06:08,15.08859517,0.0001592,53.2173,299.1628,88.0754,272.042,0.00040611,6.185e-05,0.0,0 STARLINK-3657,1 51990U 22025AL  23300.37926474  .00006185  00000-0  40611-3 0  9990,2 51990  53.2173 299.1628 0001592  88.0754 272.0420 15.08859517 90851,6917.821,95.436,540.787,538.584,0.0
51990.0,STARLINK-3657,PAYLOAD,2023-10-27 17:03:04,15.0884905,0.0001646,53.2171,297.6725,84.4645,275.6535,0.00024201,3.567e-05,0.0,0 STARLINK-3657,1 51990U 22025AL  23300.71046735  .00003567  00000-0  24201-3 0  9999,2 51990  53.2171 297.6725 0001646  84.4645 275.6535 15.08849050 90902,6917.853,95.437,540.856,538.579,0.0
51990.0,STARLINK-3657,PAYLOAD,2023-10-27 23:24:37,15.08846739,0.0002285,53.2164,296.4873,81.1785,278.9466,0.00023845,3.509e-05,0.0,0 STARLINK-3657,1 51990U 22025AL  23300.97543131  .00003509  00000-0  23845-3 0  9998,2 51990  53.2164 296.4873 0002285  81.1785 278.9466 15.08846739 92041,6917.86,95.437,541.306,538.144,0.0
51990.0,STARLINK-3657,PAYLOAD,2023-10-28 08:56:56,15.08836186,0.0001491,53.216,294.7003,83.4852,276.6309,0.00021566,3.146e-05,0.0,0 STARLINK-3657,1 51990U 22025AL  23301.37287237  .00003146  00000-0  21566-3 0  9990,2 51990  53.2160 294.7003 0001491  83.4852 276.6309 15.08836186 92104,6917.892,95.438,540.789,538.726,0.0
51990.0,STARLINK-3657,PAYLOAD,2023-10-28 16:53:52,15.08833282,0.0001574,53.2161,293.2133,88.8141,271.3031,0.00041225,6.278e-05,0.0,0 STARLINK-3657,1 51990U 22025AL  23301.70407624  .00006278  00000-0  41225-3 0  9994,2 51990  53.2161 293.2133 0001574  88.8141 271.3031 15.08833282 91056,6917.901,95.438,540.855,538.677,0.0
51990.0,STARLINK-3657,PAYLOAD,2023-10-29 08:47:43,15.08862544,0.0001482,53.2154,290.2395,89.6338,270.4824,0.0012748,0.00020071,0.0,0 STARLINK-3657,1 51990U 22025AL  23302.36647233  .00020071  00000-0  12748-2 0  9993,2 51990  53.2154 290.2395 0001482  89.6338 270.4824 15.08862544 92256,6917.811,95.436,540.702,538.651,0.0
51990.0,STARLINK-3657,PAYLOAD,2023-10-29 16:44:38,15.08847423,0.0001441,53.2166,288.7503,107.4711,252.6438,0.00043777,6.687e-05,0.0,0 STARLINK-3657,1 51990U 22025AL  23302.69767294  .00006687  00000-0  43777-3 0  9993,2 51990  53.2166 288.7503 0001441 107.4711 252.6438 15.08847423 92309,6917.858,95.437,540.72,538.726,0.0
51990.0,STARLINK-3657,PAYLOAD,2023-10-29 23:06:11,15.08849986,0.0002128,53.2163,287.5638,92.0703,268.0533,0.00055804,8.607e-05,0.0,0 STARLINK-3657,1 51990U 22025AL  23302.96263607  .00008607  00000-0  55804-3 0  9990,2 51990  53.2163 287.5638 0002128  92.0703 268.0533 15.08849986 91240,6917.85,95.437,541.187,538.243,0.0
51990.0,STARLINK-3657,PAYLOAD,2023-10-30 08:38:30,15.08847475,0.0001886,53.2158,285.7782,102.6962,257.4241,0.00049807,7.649e-05,0.0,0 STARLINK-3657,1 51990U 22025AL  23303.36007537  .00007649  00000-0  49807-3 0  9994,2 51990  53.2158 285.7782 0001886 102.6962 257.4241 15.08847475 92407,6917.858,95.437,541.027,538.418,0.0
51990.0,STARLINK-3657,PAYLOAD,2023-10-30 16:35:26,15.08833146,0.0002252,53.2164,284.2909,100.2253,259.8993,0.00023389,3.435e-05,0.0,0 STARLINK-3657,1 51990U 22025AL  23303.69128134  .00003435  00000-0  23389-3 0  9993,2 51990  53.2164 284.2909 0002252 100.2253 259.8993 15.08833146 92459,6917.901,95.438,541.324,538.208,0.0
51990.0,STARLINK-3657,PAYLOAD,2023-10-31 08:29:18,15.08844883,0.0001795,53.218,281.3185,99.0061,261.1135,0.0007512,0.00011689,0.0,0 STARLINK-3657,1 51990U 22025AL  23304.35368202  .00011689  00000-0  75120-3 0  9999,2 51990  53.2180 281.3185 0001795  99.0061 261.1135 15.08844883 91457,6917.865,95.437,540.972,538.489,0.0
51990.0,STARLINK-3657,PAYLOAD,2023-10-31 22:47:46,15.08842239,0.0001844,53.218,278.6416,98.4099,261.7103,0.00044309,6.771e-05,0.0,0 STARLINK-3657,1 51990U 22025AL  23304.94984389  .00006771  00000-0  44309-3 0  9995,2 51990  53.2180 278.6416 0001844  98.4099 261.7103 15.08842239 91546,6917.874,95.437,541.014,538.463,0.0
51990.0,STARLINK-3657,PAYLOAD,2023-11-01 05:09:18,15.08856294,0.0001445,53.2173,277.4523,93.8316,266.2842,0.00086424,0.00013499,0.0,0 STARLINK-3657,1 51990U 22025AL  23305.21480087  .00013499  00000-0  86424-3 0  9991,2 51990  53.2173 277.4523 0001445  93.8316 266.2842 15.08856294 92684,6917.831,95.437,540.695,538.696,0.0
51990.0,STARLINK-3657,PAYLOAD,2023-11-01 14:41:37,15.08853207,0.0001475,53.2186,275.6694,94.2688,265.8472,0.00054931,8.468e-05,0.0,0 STARLINK-3657,1 51990U 22025AL  23305.61223994  .00008468  00000-0  54931-3 0  9995,2 51990  53.2186 275.6694 0001475  94.2688 265.8472 15.08853207 91647,6917.84,95.437,540.725,538.685,0.0
51990.0,STARLINK-3657,PAYLOAD,2023-11-01 22:38:33,15.08840597,0.0001658,53.2187,274.1822,86.7787,273.3395,0.00023845,3.509e-05,0.0,0 STARLINK-3657,1 51990U 22025AL  23305.94344226  .00003509  00000-0  23845-3 0  9994,2 51990  53.2187 274.1822 0001658  86.7787 273.3395 15.08840597 91695,6917.879,95.438,540.891,538.597,0.0
51990.0,STARLINK-3657,PAYLOAD,2023-11-02 05:00:05,15.08854297,0.0001552,53.2189,272.9944,91.1386,268.9784,0.00067826,0.00010527,0.0,0 STARLINK-3657,1 51990U 22025AL  23306.20840019  .00010527  00000-0  67826-3 0  9990,2 51990  53.2189 272.9944 0001552  91.1386 268.9784 15.08854297 92837,6917.837,95.437,540.775,538.628,0.0
51990.0,STARLINK-3657,PAYLOAD,2023-11-02 14:32:24,15.08845346,0.0001853,53.2186,271.2088,89.4842,270.6362,0.00082677,0.00012896,0.0,0 STARLINK-3657,1 51990U 22025AL  23306.60584399  .00012896  00000-0  82677-3 0  9992,2 51990  53.2186 271.2088 0001853  89.4842 270.6362 15.08845346 91797,6917.864,95.437,541.011,538.447,0.0
51990.0,STARLINK-3657,PAYLOAD,2023-11-03 14:23:11,15.08858768,0.0001635,53.2184,266.7484,85.9217,274.1962,0.00096627,0.00015131,0.0,0 STARLINK-3657,1 51990U 22025AL  23307.59943833  .00015131  00000-0  96627-3 0  9998,2 51990  53.2184 266.7484 0001635  85.9217 274.1962 15.08858768 91943,6917.823,95.436,540.819,538.557,0.0
51990.0,STARLINK-3657,PAYLOAD,2023-11-04 03:06:16,15.08844396,0.0001539,53.2174,264.3708,91.4496,268.6672,0.0012223,0.00019221,0.0,0 STARLINK-3657,1 51990U 22025AL  23308.12936111  .00019221  00000-0  12223-2 0  9992,2 51990  53.2174 264.3708 0001539  91.4496 268.6672 15.08844396 93129,6917.867,95.437,540.797,538.667,0.0
51990.0,STARLINK-3657,PAYLOAD,2023-11-04 14:13:58,15.08843667,0.0001868,53.2171,262.2885,79.7467,280.3735,0.00097798,0.00015312,0.0,0 STARLINK-3657,1 51990U 22025AL  23308.59304330  .00015312  00000-0  97798-3 0  9993,2 51990  53.2171 262.2885 0001868  79.7467 280.3735 15.08843667 92097,6917.869,95.437,541.026,538.442,0.0
51990.0,STARLINK-3657,PAYLOAD,2023-11-05 14:04:45,15.08865323,0.0001525,53.2174,257.8292,88.8635,271.2532,0.0014368,0.00022669,0.0,0 STARLINK-3657,1 51990U 22025AL  23309.58663955  .00022669  00000-0  14368-2 0  9998,2 51990  53.2174 257.8292 0001525  88.8635 271.2532 15.08865323 92244,6917.803,95.436,540.723,538.613,0.0
51990.0,STARLINK-3657,PAYLOAD,2023-11-06 02:47:49,15.08920223,0.0001431,53.2161,255.4488,102.2319,257.8833,0.0038968,0.00062416,0.0,0 STARLINK-3657,1 51990U 22025AL  23310.11654325  .00062416  00000-0  38968-2 0  9996,2 51990  53.2161 255.4488 0001431 102.2319 257.8833 15.08920223 93423,6917.635,95.432,540.49,538.51,0.0
51990.0,STARLINK-3657,PAYLOAD,2023-11-06 13:55:31,15.08867213,0.0002827,53.2174,253.368,76.1159,284.0148,0.0035601,0.00056873,0.0,0 STARLINK-3657,1 51990U 22025AL  23310.58022009  .00056873  00000-0  35601-2 0  9996,2 51990  53.2174 253.3680 0002827  76.1159 284.0148 15.08867213 92394,6917.797,95.436,541.618,537.707,0.0
